NORAD_CAT_ID,OBJECT_NAME,OBJECT_TYPE,EPOCH,MEAN_MOTION,ECCENTRICITY,INCLINATION,RA_OF_ASC_NODE,ARG_OF_PERICENTER,MEAN_ANOMALY,BSTAR,MEAN_MOTION_DOT,MEAN_MOTION_DDOT,TLE_LINE0,TLE_LINE1,TLE_LINE2,SEMIMAJOR_AXIS,PERIOD,APOGEE,PERIGEE,DECAYED
49759.0,STARLINK-3204,PAYLOAD,2022-04-01 14:00:01,15.14454881,0.0001516,53.2171,115.1365,59.2469,107.4129,-0.038029,-0.00662779,0.0,0 STARLINK-3204,1 49759U 21115AM  22091.58334491 -.00662779  00000-0 -38029-1 0  9997,2 49759  53.2171 115.1365 0001516  59.2469 107.4129 15.14454881  3643,6900.771,95.084,523.682,521.59,0.0
49759.0,STARLINK-3204,PAYLOAD,2022-04-01 22:00:00,15.13988674,0.0001689,53.2173,113.6229,48.9875,135.7343,-0.038607,-0.00663963,0.0,0 STARLINK-3204,1 49759U 21115AM  22091.91667824 -.00663963  00000-0 -38607-1 0  9991,2 49759  53.2173 113.6229 0001689  48.9875 135.7343 15.13988674 19723,6902.188,95.113,525.2180000000002,522.887,0.0
49759.0,STARLINK-3204,PAYLOAD,2022-04-02 22:00:01,15.12449693,0.0001841,53.2177,109.0996,50.9457,184.7279,-0.028066,-0.00463271,0.0,0 STARLINK-3204,1 49759U 21115AM  22092.91668981 -.00463271  00000-0 -28066-1 0  9995,2 49759  53.2177 109.0996 0001841  50.9457 184.7279 15.12449693 19887,6906.869000000002,95.21,530.006,527.462,0.0
49759.0,STARLINK-3204,PAYLOAD,2022-04-03 06:00:00,15.11969801,0.0001597,53.2179,107.5926,71.4482,179.9876,-0.027263,-0.00445117,0.0,0 STARLINK-3204,1 49759U 21115AM  22093.25001157 -.00445117  00000-0 -27263-1 0  9996,2 49759  53.2179 107.5926 0001597  71.4482 179.9876 15.11969801 19931,6908.33,95.24,531.299,529.092,0.0
49759.0,STARLINK-3204,PAYLOAD,2022-04-03 14:00:01,15.11657602,0.0001439,53.2171,106.0811,66.0132,200.6024,-0.041418,-0.00666906,0.0,0 STARLINK-3204,1 49759U 21115AM  22093.58334491 -.00666906  00000-0 -41418-1 0  9991,2 49759  53.2171 106.0811 0001439  66.0132 200.6024 15.11657602 19982,6909.281,95.26,532.141,530.1519999999998,0.0
49759.0,STARLINK-3204,PAYLOAD,2022-04-03 22:00:00,15.11188136,0.0001555,53.2172,104.574,54.1475,227.1674,-0.041657,-0.00662343,0.0,0 STARLINK-3204,1 49759U 21115AM  22093.91667824 -.00662343  00000-0 -41657-1 0  9993,2 49759  53.2172 104.5740 0001555  54.1475 227.1674 15.11188136  3635,6910.712,95.289,533.6519999999998,531.503,0.0
49759.0,STARLINK-3204,PAYLOAD,2022-04-04 14:00:01,15.10258234,0.0001394,53.2171,101.5679,63.2445,245.7807,-0.043113,-0.00667633,0.0,0 STARLINK-3204,1 49759U 21115AM  22094.58334491 -.00667633  00000-0 -43113-1 0  9994,2 49759  53.2171 101.5679 0001394  63.2445 245.7807 15.10258234  3653,6913.549,95.348,536.378,534.45,0.0
49759.0,STARLINK-3204,PAYLOAD,2022-04-04 22:00:00,15.09787553,0.0001471,53.2172,100.0644,56.2254,265.8174,-0.043211,-0.00660941,0.0,0 STARLINK-3204,1 49759U 21115AM  22094.91667824 -.00660941  00000-0 -43211-1 0  9994,2 49759  53.2172 100.0644 0001471  56.2254 265.8174 15.09787553  3633,6914.986,95.378,537.868,535.8330000000002,0.0
49759.0,STARLINK-3204,PAYLOAD,2022-04-05 00:00:00,15.09671908,0.0001509,53.2174,99.6893,52.5682,2.64,-0.043414,-0.00661868,0.0,0 STARLINK-3204,1 49759U 21115AM  22095.00001157 -.00661868  00000-0 -43414-1 0  9990,2 49759  53.2174  99.6893 0001509  52.5682   2.6400 15.09671908 20195,6915.339,95.385,538.247,536.16,0.0
49759.0,STARLINK-3204,PAYLOAD,2022-04-05 14:00:01,15.08811222,0.0001505,53.2183,97.0737,52.1845,294.3168,0.0015765999999999,0.00024873,0.0,0 STARLINK-3204,1 49759U 21115AM  22095.58335648  .00024873  00000-0  15766-2 0  9995,2 49759  53.2183  97.0737 0001505  52.1845 294.3168 15.08811222  3597,6917.968000000003,95.439,540.875,538.7919999999998,0.0
49759.0,STARLINK-3204,PAYLOAD,2022-04-05 16:00:00,15.08856865,0.0001638,53.2183,96.6987,51.1843,28.1335,-0.0045042,-0.00071296,0.0,0 STARLINK-3204,1 49759U 21115AM  22095.66667824 -.00071296  00000-0 -45042-2 0  9991,2 49759  53.2183  96.6987 0001638  51.1843  28.1335 15.08856865 20290,6917.829000000002,95.436,540.827,538.561,0.0
49759.0,STARLINK-3204,PAYLOAD,2022-04-05 22:00:00,15.08772782,0.0001585999999999,53.2177,95.5728,58.5077,299.5198,0.0048866,0.00078202,0.0,0 STARLINK-3204,1 49759U 21115AM  22095.91667824  .00078202  00000-0  48866-2 0  9998,2 49759  53.2177  95.5728 0001586  58.5077 299.5198 15.08772782  3642,6918.0859999999975,95.442,541.048,538.854,0.0
49759.0,STARLINK-3204,PAYLOAD,2022-04-06 06:00:02,15.08865693,0.0001724,53.2197,94.085,53.667,316.0105,-0.0016617,-0.00026655,0.0,0 STARLINK-3204,1 49759U 21115AM  22096.25002315 -.00026655  00000-0 -16617-2 0  9990,2 49759  53.2197  94.0850 0001724  53.6670 316.0105 15.08865693 20380,6917.802,95.436,540.859,538.474,0.0
49759.0,STARLINK-3204,PAYLOAD,2022-04-06 14:00:01,15.08856832,0.0001664,53.2196,92.5885,49.2433,331.9782,-0.0032702,-0.00051982,0.0,0 STARLINK-3204,1 49759U 21115AM  22096.58334491 -.00051982  00000-0 -32702-2 0  9993,2 49759  53.2196  92.5885 0001664  49.2433 331.9782 15.08856832  3632,6917.829000000002,95.436,540.845,538.543,0.0
49759.0,STARLINK-3204,PAYLOAD,2022-04-06 22:00:00,15.08809446,0.0001537,53.219,91.0909,56.1552,336.6642,0.0029269,0.00046562,0.0,0 STARLINK-3204,1 49759U 21115AM  22096.91667824  .00046562  00000-0  29269-2 0  9999,2 49759  53.2190  91.0909 0001537  56.1552 336.6642 15.08809446  3596,6917.974,95.439,540.9019999999998,538.775,0.0
49759.0,STARLINK-3204,PAYLOAD,2022-04-07 14:00:01,15.08857969,0.0001715,53.2179,88.0998,49.3992,6.5871,-0.0012931,-0.00020819,0.0,0 STARLINK-3204,1 49759U 21115AM  22097.58334491 -.00020819  00000-0 -12931-2 0  9991,2 49759  53.2179  88.0998 0001715  49.3992   6.5871 15.08857969  3632,6917.825,95.436,540.877,538.504,0.0
49759.0,STARLINK-3204,PAYLOAD,2022-04-07 20:00:01,15.08822667,0.0001604,53.2182,86.9764,55.2356,279.4648,0.0033248,0.00052999,0.0,0 STARLINK-3204,1 49759U 21115AM  22097.83334491  .00052999  00000-0  33248-2 0  9995,2 49759  53.2182  86.9764 0001604  55.2356 279.4648 15.08822667 20629,6917.933000000001,95.439,540.908,538.689,0.0
49759.0,STARLINK-3204,PAYLOAD,2022-04-07 22:00:00,15.08837975,0.0001625,53.2184,86.6022,56.812,10.786,0.0027817,0.00044259,0.0,0 STARLINK-3204,1 49759U 21115AM  22097.91667824  .00044259  00000-0  27817-2 0  9998,2 49759  53.2184  86.6022 0001625  56.8120  10.7860 15.08837975  3591,6917.887,95.438,540.876,538.627,0.0
49759.0,STARLINK-3204,PAYLOAD,2022-04-08 14:00:03,15.08864101,0.0001696,53.2185,83.6107,49.4429,41.5177,-0.0014404,-0.00023154,0.0,0 STARLINK-3204,1 49759U 21115AM  22098.58336806 -.00023154  00000-0 -14404-2 0  9996,2 49759  53.2185  83.6107 0001696  49.4429  41.5177 15.08864101 20730,6917.807,95.436,540.845,538.498,0.0
49759.0,STARLINK-3204,PAYLOAD,2022-04-08 22:00:00,15.08855198,0.0001647,53.2189,82.1132,57.2208,45.2255,-0.00047391,-7.826e-05,0.0,0 STARLINK-3204,1 49759U 21115AM  22098.91667824 -.00007826  00000-0 -47391-3 0  9990,2 49759  53.2189  82.1132 0001647  57.2208  45.2255 15.08855198  3593,6917.834,95.437,540.8380000000002,538.56,0.0
49759.0,STARLINK-3204,PAYLOAD,2022-04-09 14:00:01,15.08852825,0.000172,53.2188,79.1218,51.3948,74.2413,-0.0040627,-0.00064391,0.0,0 STARLINK-3204,1 49759U 21115AM  22099.58334491 -.00064391  00000-0 -40627-2 0  9999,2 49759  53.2188  79.1218 0001720  51.3948  74.2413 15.08852825  3627,6917.840999999999,95.437,540.896,538.516,0.0
49759.0,STARLINK-3204,PAYLOAD,2022-04-09 16:00:00,15.08831007,0.0001635,53.219,78.7472,53.0696,165.4706,-0.0017317,-0.00027736,0.0,0 STARLINK-3204,1 49759U 21115AM  22099.66667824 -.00027736  00000-0 -17317-2 0  9999,2 49759  53.2190  78.7472 0001635  53.0696 165.4706 15.08831007 20896,6917.908,95.438,540.904,538.6419999999998,0.0
49759.0,STARLINK-3204,PAYLOAD,2022-04-09 22:00:00,15.08812604,0.0001597,53.2192,77.6244,58.076,79.1438,0.0020021,0.00031695,0.0,0 STARLINK-3204,1 49759U 21115AM  22099.91667824  .00031695  00000-0  20021-2 0  9990,2 49759  53.2192  77.6244 0001597  58.0760  79.1438 15.08812604  3624,6917.964,95.439,540.934,538.724,0.0
49759.0,STARLINK-3204,PAYLOAD,2022-04-10 06:00:02,15.08825195,0.0001746,53.2191,76.13,51.4792,97.3821,0.00040391,6.143e-05,0.0,0 STARLINK-3204,1 49759U 21115AM  22100.25002315  .00006143  00000-0  40391-3 0  9991,2 49759  53.2191  76.1300 0001746  51.4792  97.3821 15.08825195 20983,6917.926,95.438,540.999,538.5830000000002,0.0
49759.0,STARLINK-3204,PAYLOAD,2022-04-10 14:00:01,15.08854336,0.0001665,53.2187,74.6329,53.2095,107.1693,-0.001408,-0.00022635,0.0,0 STARLINK-3204,1 49759U 21115AM  22100.58334491 -.00022635  00000-0 -14080-2 0  9991,2 49759  53.2187  74.6329 0001665  53.2095 107.1693 15.08854336  3626,6917.837,95.437,540.8530000000002,538.55,0.0
49759.0,STARLINK-3204,PAYLOAD,2022-04-10 22:00:00,15.08862492,0.000164,53.2191,73.1358,61.776,110.2099,-0.0010411,-0.00016829,0.0,0 STARLINK-3204,1 49759U 21115AM  22100.91667824 -.00016829  00000-0 -10411-2 0  9999,2 49759  53.2191  73.1358 0001640  61.7760 110.2099 15.08862492 21080,6917.812,95.436,540.811,538.5419999999998,0.0
49759.0,STARLINK-3204,PAYLOAD,2022-04-11 14:00:01,15.08866091,0.0001706999999999,53.2184,70.1438,57.4375,137.7363,-0.0037827,-0.00060031,0.0,0 STARLINK-3204,1 49759U 21115AM  22101.58334491 -.00060031  00000-0 -37827-2 0  9998,2 49759  53.2184  70.1438 0001707  57.4375 137.7363 15.08866091  3612,6917.801,95.436,540.847,538.485,0.0
49759.0,STARLINK-3204,PAYLOAD,2022-04-11 22:00:00,15.08824703,0.0001608,53.2186,68.6469,62.6649,144.1059,0.00067453,0.00010459,0.0,0 STARLINK-3204,1 49759U 21115AM  22101.91667824  .00010459  00000-0  67453-3 0  9990,2 49759  53.2186  68.6469 0001608  62.6649 144.1059 15.08824703  3609,6917.927,95.439,540.905,538.68,0.0
49759.0,STARLINK-3204,PAYLOAD,2022-04-12 06:00:02,15.08760459,0.000186,53.218,67.1467,55.0899,163.3007,0.011224,0.00182612,0.0,0 STARLINK-3204,1 49759U 21115AM  22102.25002315  .00182612  00000-0  11224-1 0  9990,2 49759  53.2180  67.1467 0001860  55.0899 163.3007 15.08760459 21285,6918.124,95.443,541.275,538.702,0.0
